{"type": "FeatureCollection", "features": [ {"type": "Feature", "properties": {"norad_id": 31185, "name": "FENGYUN 1C DEB", "group": "fengyun-1c-debris", "lat": -75.7135956938834, "lon": 119.4291982037839, "alt_km": 911.7606513323744, "timestamp": "2025-12-06T09:34:17.194568+00:00", "meta": {"OBJECT_NAME": "FENGYUN 1C DEB", "OBJECT_ID": "1999-025BJP", "EPOCH": "2025-12-03T06:44:56.905152", "MEAN_MOTION": 14.03019915, "ECCENTRICITY": 0.0041359, "INCLINATION": 98.8321, "RA_OF_ASC_NODE": 334.0356, "ARG_OF_PERICENTER": 132.5488, "MEAN_ANOMALY": 227.9182, "EPHEMERIS_TYPE": 0, "CLASSIFICATION_TYPE": "U", "NORAD_CAT_ID": 31185, "ELEMENT_SET_NO": 999, "REV_AT_EPOCH": 62204, "BSTAR": 0.0004459, "MEAN_MOTION_DOT": 6.55e-06, "MEAN_MOTION_DDOT": 0}, "tle": {"line1": "1 31185U 99025BJP 25337.28121418  .00000655  00000+0  44590-3 0  9990", "line2": "2 31185  98.8321 334.0356 0041359 132.5488 227.9182 14.03019915622046"}}, "geometry": {"type": "Point", "coordinates": [119.4291982037839, -75.7135956938834]}}, {"type": "Feature", "properties": {"norad_id": 31186, "name": "FENGYUN 1C DEB", "group": "fengyun-1c-debris", "lat": -36.216264190867854, "lon": 68.80168815488518, "alt_km": 869.7603827171224, "timestamp": "2025-12-06T09:34:17.194578+00:00", "meta": {"OBJECT_NAME": "FENGYUN 1C DEB", "OBJECT_ID": "1999-025BJQ", "EPOCH": "2025-12-02T00:56:26.242368", "MEAN_MOTION": 14.1287731, "ECCENTRICITY": 0.00265333, "INCLINATION": 99.1774, "RA_OF_ASC_NODE": 251.1349, "ARG_OF_PERICENTER": 91.9141, "MEAN_ANOMALY": 282.1326, "EPHEMERIS_TYPE": 0, "CLASSIFICATION_TYPE": "U", "NORAD_CAT_ID": 31186, "ELEMENT_SET_NO": 999, "REV_AT_EPOCH": 95954, "BSTAR": 0.0005366123, "MEAN_MOTION_DOT": 9.55e-06, "MEAN_MOTION_DDOT": 0}, "tle": {"line1": "1 31186U 99025BJQ 25336.03919262  .00000955  00000+0  53661-3 0  9997", "line2": "2 31186  99.1774 251.1349 0026533  91.9141 282.1326 14.12877310959547"}}, "geometry": {"type": "Point", "coordinates": [68.80168815488518, -36.216264190867854]}}, {"type": "Feature", "properties": {"norad_id": 31187, "name": "FENGYUN 1C DEB", "group": "fengyun-1c-debris", "lat": 47.644535110905196, "lon": 33.410566388748656, "alt_km": 746.8808383383466, "timestamp": "2025-12-06T09:34:17.194588+00:00", "meta": {"OBJECT_NAME": "FENGYUN 1C DEB", "OBJECT_ID": "1999-025BJR", "EPOCH": "2025-12-04T09:12:55.501344", "MEAN_MOTION": 14.58818498, "ECCENTRICITY": 0.0221946, "INCLINATION": 99.2417, "RA_OF_ASC_NODE": 200.8812, "ARG_OF_PERICENTER": 249.2029, "MEAN_ANOMALY": 108.5265, "EPHEMERIS_TYPE": 0, "CLASSIFICATION_TYPE": "U", "NORAD_CAT_ID": 31187, "ELEMENT_SET_NO": 999, "REV_AT_EPOCH": 68978, "BSTAR": 0.0080711, "MEAN_MOTION_DOT": 0.00053507, "MEAN_MOTION_DDOT": 0}, "tle": {"line1": "1 31187U 99025BJR 25338.38397571  .00053507  00000+0  80711-2 0  9997", "line2": "2 31187  99.2417 200.8812 0221946 249.2029 108.5265 14.58818498689788"}}, "geometry": {"type": "Point", "coordinates": [33.410566388748656, 47.644535110905196]}}, {"type": "Feature", "properties": {"norad_id": 31188, "name": "FENGYUN 1C DEB", "group": "fengyun-1c-debris", "lat": 14.404102393934718, "lon": 45.95198120148158, "alt_km": 825.6622948176, "timestamp": "2025-12-06T09:34:17.194598+00:00", "meta": {"OBJECT_NAME": "FENGYUN 1C DEB", "OBJECT_ID": "1999-025BJS", "EPOCH": "2025-12-05T03:26:03.547104", "MEAN_MOTION": 14.23746039, "ECCENTRICITY": 0.00594994, "INCLINATION": 98.7496, "RA_OF_ASC_NODE": 46.9698, "ARG_OF_PERICENTER": 271.5057, "MEAN_ANOMALY": 149.9815, "EPHEMERIS_TYPE": 0, "CLASSIFICATION_TYPE": "U", "NORAD_CAT_ID": 31188, "ELEMENT_SET_NO": 999, "REV_AT_EPOCH": 96228, "BSTAR": 0.0031565228, "MEAN_MOTION_DOT": 7.306e-05, "MEAN_MOTION_DDOT": 0}, "tle": {"line1": "1 31188U 99025BJS 25339.14309661  .00007306  00000+0  31565-2 0  9995", "line2": "2 31188  98.7496  46.9698 0059499 271.5057 149.9815 14.23746039962284"}}, "geometry": {"type": "Point", "coordinates": [45.95198120148158, 14.404102393934718]}}, {"type": "Feature", "properties": {"norad_id": 31190, "name": "FENGYUN 1C DEB", "group": "fengyun-1c-debris", "lat": -80.68850967092533, "lon": 64.54955736601597, "alt_km": 839.9307427776348, "timestamp": "2025-12-06T09:34:17.194608+00:00", "meta": {"OBJECT_NAME": "FENGYUN 1C DEB", "OBJECT_ID": "1999-025BJU", "EPOCH": "2025-12-05T23:42:59.017248", "MEAN_MOTION": 14.03573899, "ECCENTRICITY": 0.00674553, "INCLINATION": 98.819, "RA_OF_ASC_NODE": 352.9184, "ARG_OF_PERICENTER": 278.5517, "MEAN_ANOMALY": 80.801, "EPHEMERIS_TYPE": 0, "CLASSIFICATION_TYPE": "U", "NORAD_CAT_ID": 31190, "ELEMENT_SET_NO": 999, "REV_AT_EPOCH": 95452, "BSTAR": 0.0011330809, "MEAN_MOTION_DOT": 1.771e-05, "MEAN_MOTION_DDOT": 0}, "tle": {"line1": "1 31190U 99025BJU 25339.98818307  .00001771  00000+0  11331-2 0  9991", "line2": "2 31190  98.8190 352.9184 0067455 278.5517  80.8010 14.03573899954526"}}, "geometry": {"type": "Point", "coordinates": [64.54955736601597, -80.68850967092533]}}, {"type": "Feature", "properties": {"norad_id": 31191, "name": "FENGYUN 1C DEB", "group": "fengyun-1c-debris", "lat": 17.092847977139087, "lon": -121.60596620223163, "alt_km": 819.4125084413427, "timestamp": "2025-12-06T09:34:17.194618+00:00", "meta": {"OBJECT_NAME": "FENGYUN 1C DEB", "OBJECT_ID": "1999-025BJV", "EPOCH": "2025-12-05T16:49:21.170208", "MEAN_MOTION": 14.40765771, "ECCENTRICITY": 0.00919348, "INCLINATION": 98.7823, "RA_OF_ASC_NODE": 240.4024, "ARG_OF_PERICENTER": 215.5866, "MEAN_ANOMALY": 143.9169, "EPHEMERIS_TYPE": 0, "CLASSIFICATION_TYPE": "U", "NORAD_CAT_ID": 31191, "ELEMENT_SET_NO": 999, "REV_AT_EPOCH": 97911, "BSTAR": 0.00067741199, "MEAN_MOTION_DOT": 2.229e-05, "MEAN_MOTION_DDOT": 0}, "tle": {"line1": "1 31191U 99025BJV 25339.70093947  .00002229  00000+0  67741-3 0  9993", "line2": "2 31191  98.7823 240.4024 0091934 215.5866 143.9169 14.40765771979111"}}, "geometry": {"type": "Point", "coordinates": [-121.60596620223163, 17.092847977139087]}}, {"type": "Feature", "properties": {"norad_id": 31192, "name": "FENGYUN 1C DEB", "group": "fengyun-1c-debris", "lat": 8.282477505071014, "lon": -36.97330726523293, "alt_km": 894.5783262351006, "timestamp": "2025-12-06T09:34:17.194627+00:00", "meta": {"OBJECT_NAME": "FENGYUN 1C DEB", "OBJECT_ID": "1999-025BJW", "EPOCH": "2025-12-05T16:37:52.220928", "MEAN_MOTION": 14.20943064, "ECCENTRICITY": 0.02595204, "INCLINATION": 98.5522, "RA_OF_ASC_NODE": 323.5978, "ARG_OF_PERICENTER": 124.114, "MEAN_ANOMALY": 238.4953, "EPHEMERIS_TYPE": 0, "CLASSIFICATION_TYPE": "U", "NORAD_CAT_ID": 31192, "ELEMENT_SET_NO": 999, "REV_AT_EPOCH": 96643, "BSTAR": 0.00043733292, "MEAN_MOTION_DOT": 1.286e-05, "MEAN_MOTION_DDOT": 0}, "tle": {"line1": "1 31192U 99025BJW 25339.69296552  .00001286  00000+0  43733-3 0  9996", "line2": "2 31192  98.5522 323.5978 0259520 124.1140 238.4953 14.20943064966437"}}, "geometry": {"type": "Point", "coordinates": [-36.97330726523293, 8.282477505071014]}}, {"type": "Feature", "properties": {"norad_id": 31194, "name": "FENGYUN 1C DEB", "group": "fengyun-1c-debris", "lat": -60.733256889175635, "lon": -114.43450890925088, "alt_km": 735.4904132115407, "timestamp": "2025-12-06T09:34:17.194637+00:00", "meta": {"OBJECT_NAME": "FENGYUN 1C DEB", "OBJECT_ID": "1999-025BJY", "EPOCH": "2025-12-05T10:27:17.971488", "MEAN_MOTION": 14.36579737, "ECCENTRICITY": 0.00579243, "INCLINATION": 98.9638, "RA_OF_ASC_NODE": 228.2048, "ARG_OF_PERICENTER": 300.7578, "MEAN_ANOMALY": 58.7911, "EPHEMERIS_TYPE": 0, "CLASSIFICATION_TYPE": "U", "NORAD_CAT_ID": 31194, "ELEMENT_SET_NO": 999, "REV_AT_EPOCH": 97022, "BSTAR": 0.002103726, "MEAN_MOTION_DOT": 6.261e-05, "MEAN_MOTION_DDOT": 0}, "tle": {"line1": "1 31194U 99025BJY 25339.43562467  .00006261  00000+0  21037-2 0  9991", "line2": "2 31194  98.9638 228.2048 0057924 300.7578  58.7911 14.36579737970229"}}, "geometry": {"type": "Point", "coordinates": [-114.43450890925088, -60.733256889175635]}}, {"type": "Feature", "properties": {"norad_id": 31195, "name": "FENGYUN 1C DEB", "group": "fengyun-1c-debris", "lat": 19.84734959779397, "lon": 10.69000134556185, "alt_km": 990.5602789066897, "timestamp": "2025-12-06T09:34:17.194648+00:00", "meta": {"OBJECT_NAME": "FENGYUN 1C DEB", "OBJECT_ID": "1999-025BJZ", "EPOCH": "2025-12-04T13:07:42.866688", "MEAN_MOTION": 14.07972608, "ECCENTRICITY": 0.0171503, "INCLINATION": 98.78, "RA_OF_ASC_NODE": 12.0861, "ARG_OF_PERICENTER": 204.2856, "MEAN_ANOMALY": 155.0161, "EPHEMERIS_TYPE": 0, "CLASSIFICATION_TYPE": "U", "NORAD_CAT_ID": 31195, "ELEMENT_SET_NO": 999, "REV_AT_EPOCH": 95983, "BSTAR": 0.00023633, "MEAN_MOTION_DOT": 4.16e-06, "MEAN_MOTION_DDOT": 0}, "tle": {"line1": "1 31195U 99025BJZ 25338.54702392  .00000416  00000+0  23633-3 0  9997", "line2": "2 31195  98.7800  12.0861 0171503 204.2856 155.0161 14.07972608959832"}}, "geometry": {"type": "Point", "coordinates": [10.69000134556185, 19.84734959779397]}}, {"type": "Feature", "properties": {"norad_id": 31196, "name": "FENGYUN 1C DEB", "group": "fengyun-1c-debris", "lat": -70.09507068574315, "lon": 18.27559509590995, "alt_km": 791.6966679110892, "timestamp": "2025-12-06T09:34:17.194658+00:00", "meta": {"OBJECT_NAME": "FENGYUN 1C DEB", "OBJECT_ID": "1999-025BKA", "EPOCH": "2025-12-05T18:44:48.180480", "MEAN_MOTION": 14.25432464, "ECCENTRICITY": 0.0057628, "INCLINATION": 98.5269, "RA_OF_ASC_NODE": 353.1977, "ARG_OF_PERICENTER": 232.6794, "MEAN_ANOMALY": 126.9127, "EPHEMERIS_TYPE": 0, "CLASSIFICATION_TYPE": "U", "NORAD_CAT_ID": 31196, "ELEMENT_SET_NO": 999, "REV_AT_EPOCH": 63396, "BSTAR": 0.00091402661, "MEAN_MOTION_DOT": 2.152e-05, "MEAN_MOTION_DDOT": 0}, "tle": {"line1": "1 31196U 99025BKA 25339.78111320  .00002152  00000+0  91403-3 0  9999", "line2": "2 31196  98.5269 353.1977 0057628 232.6794 126.9127 14.25432464633967"}}, "geometry": {"type": "Point", "coordinates": [18.27559509590995, -70.09507068574315]}}]}